[
    {
        "Altitude(m)": 622200.1235643841,
        "Argument of Periapsis(deg)": 0.0,
        "Eccentricity": 0.0,
        "Inclination(deg)": 60.0,
        "Latitude(deg)": -52.16258339061376,
        "Longitude(deg)": -157.63937125516668,
        "Mean Anomaly(deg)": -65.45450000000002,
        "RAAN(deg)": 350.0,
        "Satellite Name": "Test1 1558",
        "Satellite Number": 1558,
        "Semi-Major Axis(m)": 6980739.136638005,
        "Time(s)": 0
    },
    {
        "Altitude(m)": 622058.2918344177,
        "Argument of Periapsis(deg)": 0.00010418945913296404,
        "Eccentricity": 0.0,
        "Inclination(deg)": 60.0,
        "Latitude(deg)": -51.799334338080165,
        "Longitude(deg)": -156.8713109878544,
        "Mean Anomaly(deg)": -64.83439385453818,
        "RAAN(deg)": 349.99957995086027,
        "Satellite Name": "Test1 1558",
        "Satellite Number": 1558,
        "Semi-Major Axis(m)": 6980739.136638005,
        "Time(s)": 10
    }
]